{
  "type": "FeatureCollection",
  "features": [
    {
      "type": "Feature",
      "properties": {
        "name": "Pench Tiger Reserve boundary (user-drawn)"
      },
      "geometry": {
        "type": "Polygon",
        "coordinates": [
          [
            [
              79.190178,
              21.63518
            ],
            [
              79.190178,
              21.786307
            ],
            [
              79.373204,
              21.786307
            ],
            [
              79.373204,
              21.63518
            ],
            [
              79.190178,
              21.63518
            ]
          ]
        ]
      }
    }
  ]
}