{"type":"FeatureCollection","features":[{"type":"Feature","properties":{},"geometry":{"type":"Polygon","coordinates":[[[79.190178,21.63518],[79.190178,21.786307],[79.373204,21.786307],[79.373204,21.63518],[79.190178,21.63518]]]}},{"type":"Feature","properties":{},"geometry":{"type":"Polygon","coordinates":[[[79.244237,21.702918],[79.257457,21.72954],[79.244065,21.746116],[79.267072,21.761575],[79.290423,21.763806],[79.291453,21.737509],[79.294028,21.718701],[79.307421,21.713599],[79.300725,21.701962],[79.269819,21.695904],[79.244237,21.702918]]]}},{"type":"Feature","properties":{},"geometry":{"type":"Polygon","coordinates":[[[79.250244,21.64119],[79.243548,21.66862],[79.254021,21.679623],[79.258142,21.690944],[79.274625,21.69477],[79.308105,21.718524],[79.317548,21.71135],[79.317548,21.689509],[79.311883,21.669418],[79.323043,21.655863],[79.31463,21.643902],[79.250244,21.64119]]]}},{"type":"Feature","properties":{},"geometry":{"type":"Polygon","coordinates":[[[79.319609,21.762383],[79.282351,21.757761],[79.272736,21.747083],[79.274968,21.737042],[79.281149,21.724928],[79.31875,21.720306],[79.33695,21.718552],[79.357038,21.714408],[79.355321,21.701176],[79.36837,21.707075],[79.365108,21.739593],[79.321497,21.761905],[79.319609,21.762383]]]}},{"type":"Feature","properties":{},"geometry":{"type":"Polygon","coordinates":[[[79.310166,21.701475],[79.328537,21.730807],[79.360129,21.706577],[79.355322,21.682024],[79.34605,21.650769],[79.309479,21.651566],[79.310166,21.701475]]]}}]}